[{"id":"26958","name":"PROBA-1","tle1":"1 26958U 01049B   26176.30094041  .00003623  00000+0  23457-3 0  9994","tle2":"2 26958  97.9604 185.1164 0056319  95.3145 265.4511 15.07528635344843"},{"id":"27844","name":"CUTE-1 (CO-55)","tle1":"1 27844U 03031E   26176.25618352  .00000279  00000+0  13960-3 0  9995","tle2":"2 27844  98.6736 184.7136 0010021 155.2513 204.9149 14.24340250192828"},{"id":"27848","name":"CUBESAT XI-IV (CO-57)","tle1":"1 27848U 03031J   26175.96755848  .00000227  00000+0  11865-3 0  9993","tle2":"2 27848  98.6767 184.1351 0009536 174.0960 186.0333 14.23624582192482"},{"id":"35684","name":"APRIZESAT 4","tle1":"1 35684U 09041D   26176.14652464  .00000593  00000+0  77388-4 0  9997","tle2":"2 35684  98.1409 251.6256 0042011 296.5870  63.1042 14.83888656912545"},{"id":"35686","name":"APRIZESAT 3","tle1":"1 35686U 09041F   26176.19075926  .00001232  00000+0  11073-3 0  9995","tle2":"2 35686  98.2074 329.7984 0062622  41.6843 318.9124 14.96265947917576"},{"id":"36037","name":"PROBA-2","tle1":"1 36037U 09059B   26176.21843339  .00000199  00000+0  56923-4 0  9994","tle2":"2 36037  98.2452 359.4599 0011966 254.5797 105.4079 14.54865565882695"},{"id":"37792","name":"APRIZESAT 5","tle1":"1 37792U 11044E   26176.04670715  .00000971  00000+0  12984-3 0  9993","tle2":"2 37792  98.2452 109.3098 0051694 338.9768  20.9317 14.81091206799952"},{"id":"37793","name":"APRIZESAT 6","tle1":"1 37793U 11044F   26175.33886873  .00000649  00000+0  98650-4 0  9996","tle2":"2 37793  98.2359  85.9843 0044372  63.8602  53.9492 14.76925336798203"},{"id":"39159","name":"PROBA-V","tle1":"1 39159U 13021A   26176.20189845  .00000077  00000+0  51922-4 0  9999","tle2":"2 39159  98.3588 154.4130 0005379 105.0732 255.1043 14.23598638682252"},{"id":"39416","name":"APRIZESAT 7","tle1":"1 39416U 13066A   26175.86874764  .00000940  00000+0  98375-4 0  9998","tle2":"2 39416  97.7710 128.9782 0035651 183.3363 176.7623 14.91577638682379"},{"id":"39425","name":"APRIZESAT 8","tle1":"1 39425U 13066K   26176.07824951  .00000805  00000+0  93169-4 0  9991","tle2":"2 39425  97.8222 123.4362 0044353 259.6873  99.9341 14.87665274680846"},{"id":"40014","name":"BUGSAT-1 (TITA)","tle1":"1 40014U 14033E   26176.28886020  .00006209  00000+0  32694-3 0  9999","tle2":"2 40014  98.0423 269.3119 0028708 151.0335 209.2496 15.15665766657065"},{"id":"40016","name":"SAUDISAT 4","tle1":"1 40016U 14033G   26175.96385747  .00000558  00000+0  80101-4 0  9993","tle2":"2 40016  97.7592 321.8297 0045844  49.3968 311.1218 14.79553604647220"},{"id":"40018","name":"APRIZESAT 9","tle1":"1 40018U 14033J   26176.28462966  .00000702  00000+0  11027-3 0  9991","tle2":"2 40018  97.9069 309.2857 0066331 173.0992 187.1146 14.74225161644756"},{"id":"40019","name":"APRIZESAT 10","tle1":"1 40019U 14033K   26176.28993592  .00000472  00000+0  82073-4 0  9990","tle2":"2 40019  97.9657 303.0690 0077505 247.5059 111.7929 14.70889574643440"},{"id":"40076","name":"TECHDEMOSAT-1 (TDS-1)","tle1":"1 40076U 14037H   26176.22513106  .00008615  00000+0  48657-3 0  9996","tle2":"2 40076  98.3817 169.2350 0004874 228.6186 131.4624 15.13400684649447"},{"id":"42829","name":"TECHNOSAT","tle1":"1 42829U 17042E   26176.16131605  .00003185  00000+0  22772-3 0  9993","tle2":"2 42829  97.4295 333.5164 0019335  69.4707 290.8593 15.05006221487908"},{"id":"42831","name":"FLYING LAPTOP","tle1":"1 42831U 17042G   26176.31763641  .00002947  00000+0  23325-3 0  9994","tle2":"2 42831  97.4722 331.5390 0019949  95.8241 264.5258 15.01192342487678"},{"id":"43765","name":"HAWK-A","tle1":"1 43765U 18099H   26175.89551820  .00006880  00000+0  27669-3 0  9995","tle2":"2 43765  97.3914 228.0308 0033112 257.2937 102.4599 15.24721850414271"},{"id":"43794","name":"HAWK-B","tle1":"1 43794U 18099AN  26176.12336850  .00006227  00000+0  26531-3 0  9990","tle2":"2 43794  97.3963 227.6541 0030238 275.5351  84.2437 15.22902052414248"},{"id":"43799","name":"HAWK-C","tle1":"1 43799U 18099AT  26176.11650248  .00008490  00000+0  30484-3 0  9990","tle2":"2 43799  97.3891 229.2004 0038759 256.4332 103.2589 15.28202356415122"},{"id":"46495","name":"SALSAT","tle1":"1 46495U 20068K   26176.25605951  .00008540  00000+0  29756-3 0  9997","tle2":"2 46495  97.8852 179.8123 0007805 273.7441  86.2905 15.29904088316598"},{"id":"47502","name":"HAWK-2C","tle1":"1 47502U 21006CT  26176.10686700  .00007387  00000+0  22144-3 0  9997","tle2":"2 47502  97.2280 220.2588 0007554 159.4355 200.7194 15.34750490300710"},{"id":"47505","name":"HAWK-2A","tle1":"1 47505U 21006CW  26176.10928270  .00007311  00000+0  21910-3 0  9998","tle2":"2 47505  97.2324 220.9437 0007006 162.1843 197.9648 15.34764970300716"},{"id":"47508","name":"HAWK-2B","tle1":"1 47508U 21006CZ  26176.16953332  .00008454  00000+0  25213-3 0  9993","tle2":"2 47508  97.2190 219.3214 0007581 160.7475 199.4056 15.34866046300726"},{"id":"48931","name":"HAWK-3B","tle1":"1 48931U 21059BE  26176.10076897  .00053673  00000+0  44263-3 0  9997","tle2":"2 48931  97.6658  13.5609 0003099 288.6727  71.4197 15.70194290279097"},{"id":"48948","name":"HAWK-3C","tle1":"1 48948U 21059BX  26176.10044713  .00053062  00000+0  43762-3 0  9992","tle2":"2 48948  97.6778  19.2601 0003313 291.3234  68.7673 15.70194315279092"},{"id":"48957","name":"HAWK-3A","tle1":"1 48957U 21059CG  26176.10029716  .00053307  00000+0  43975-3 0  9996","tle2":"2 48957  97.6724  16.4581 0003336 291.9727  68.1179 15.70187020279097"},{"id":"52754","name":"HAWK-5C","tle1":"1 52754U 22057Y   26176.17052532  .00021991  00000+0  37123-3 0  9996","tle2":"2 52754  97.6603 336.3540 0004408  57.8071 302.3608 15.51650119227584"},{"id":"52756","name":"HAWK-5B","tle1":"1 52756U 22057AA  26176.10587514  .00021805  00000+0  36807-3 0  9996","tle2":"2 52756  97.6612 334.6351 0005083  50.4451 309.7249 15.51649750227578"}]